{
    "links": {
        "self": "http://www.neowsapp.com/rest/v1/neo/3726817?api_key=iIulBulltgU6a56xZRHN4H3l9WmuAYTsLGpBGhQ2"
    },
    "id": "3726817",
    "neo_reference_id": "3726817",
    "name": "(2015 RX2)",
    "designation": "2015 RX2",
    "nasa_jpl_url": "http://ssd.jpl.nasa.gov/sbdb.cgi?sstr=3726817",
    "absolute_magnitude_h": 21.7,
    "estimated_diameter": {
        "kilometers": {
            "estimated_diameter_min": 0.1214940408,
            "estimated_diameter_max": 0.2716689341
        },
        "meters": {
            "estimated_diameter_min": 121.4940407996,
            "estimated_diameter_max": 271.6689340891
        },
        "miles": {
            "estimated_diameter_min": 0.0754928736,
            "estimated_diameter_max": 0.1688071972
        },
        "feet": {
            "estimated_diameter_min": 398.6025088171,
            "estimated_diameter_max": 891.3023057169
        }
    },
    "is_potentially_hazardous_asteroid": false,
    "close_approach_data": [
        {
            "close_approach_date": "2015-08-08",
            "close_approach_date_full": "2015-Aug-08 03:25",
            "epoch_date_close_approach": 1439004300000,
            "relative_velocity": {
                "kilometers_per_second": "6.8082338025",
                "kilometers_per_hour": "24509.6416888394",
                "miles_per_hour": "15229.3381927125"
            },
            "miss_distance": {
                "astronomical": "0.1660165001",
                "lunar": "64.5804185389",
                "kilometers": "24835714.799814787",
                "miles": "15432197.5760945806"
            },
            "orbiting_body": "Earth"
        },
        {
            "close_approach_date": "2043-08-14",
            "close_approach_date_full": "2043-Aug-14 21:24",
            "epoch_date_close_approach": 2323200240000,
            "relative_velocity": {
                "kilometers_per_second": "9.1643959307",
                "kilometers_per_hour": "32991.8253504809",
                "miles_per_hour": "20499.8372573585"
            },
            "miss_distance": {
                "astronomical": "0.2689612931",
                "lunar": "104.6259430159",
                "kilometers": "40236036.560205697",
                "miles": "25001513.7829127386"
            },
            "orbiting_body": "Earth"
        }
    ],
    "orbital_data": {
        "orbit_id": "20",
        "orbit_determination_date": "2017-04-06 08:32:09",
        "first_observation_date": "2015-09-09",
        "last_observation_date": "2015-10-18",
        "data_arc_in_days": 39,
        "observations_used": 69,
        "orbit_uncertainty": "6",
        "minimum_orbit_intersection": ".135832",
        "jupiter_tisserand_invariant": "3.566",
        "epoch_osculation": "2459000.5",
        "eccentricity": ".4607508922048539",
        "semi_major_axis": "2.131913467279684",
        "inclination": "7.832325078611091",
        "ascending_node_longitude": "314.6957680023033",
        "orbital_period": "1136.979898177007",
        "perihelion_distance": "1.149632435127026",
        "perihelion_argument": "354.4872071593082",
        "aphelion_distance": "3.114194499432342",
        "perihelion_time": "2459515.240598320894",
        "mean_anomaly": "197.01856497847",
        "mean_motion": ".3166282891871801",
        "equinox": "J2000",
        "orbit_class": {
            "orbit_class_type": "AMO",
            "orbit_class_description": "Near-Earth asteroid orbits similar to that of 1221 Amor",
            "orbit_class_range": "1.017 AU < q (perihelion) < 1.3 AU"
        }
    },
    "is_sentry_object": false
}